NORAD_CAT_ID,OBJECT_NAME,OBJECT_TYPE,EPOCH,MEAN_MOTION,ECCENTRICITY,INCLINATION,RA_OF_ASC_NODE,ARG_OF_PERICENTER,MEAN_ANOMALY,BSTAR,MEAN_MOTION_DOT,MEAN_MOTION_DDOT,TLE_LINE0,TLE_LINE1,TLE_LINE2,SEMIMAJOR_AXIS,PERIOD,APOGEE,PERIGEE,DECAYED
50815.0,STARLINK-3234,PAYLOAD,2023-05-09 04:28:25,15.08836784,9.52e-05,53.2169,137.6706,98.5361,261.5739,5.7873e-05,6.33e-06,0.0,0 STARLINK-3234,1 50815U 22001N   23129.18640490  .00000633  00000-0  57873-4 0  9999,2 50815  53.2169 137.6706 0000952  98.5361 261.5739 15.08836784 75358,6917.89,95.438,540.414,539.097,0.0
50815.0,STARLINK-3234,PAYLOAD,2023-05-09 07:39:11,15.08837531,9.76e-05,53.2159,137.0754,98.2419,261.8684,7.9205e-05,9.73e-06,0.0,0 STARLINK-3234,1 50815U 22001N   23129.31888406  .00000973  00000-0  79205-4 0  9995,2 50815  53.2159 137.0754 0000976  98.2419 261.8684 15.08837531 74106,6917.888,95.438,540.428,539.078,0.0
50815.0,STARLINK-3234,PAYLOAD,2023-05-10 07:29:58,15.08836671,0.0001,53.2162,132.6147,95.5041,264.6065,9.5959e-05,1.24e-05,0.0,0 STARLINK-3234,1 50815U 22001N   23130.31248796  .00001240  00000-0  95959-4 0  9991,2 50815  53.2162 132.6147 0001000  95.5041 264.6065 15.08836671 74251,6917.891,95.438,540.447,539.064,0.0
50815.0,STARLINK-3234,PAYLOAD,2023-05-10 17:02:17,15.08837281,0.0001002,53.2164,130.83,91.4674,268.6433,8.2162e-05,1.02e-05,0.0,0 STARLINK-3234,1 50815U 22001N   23130.70992892  .00001020  00000-0  82162-4 0  9995,2 50815  53.2164 130.8300 0001002  91.4674 268.6433 15.08837281 74311,6917.889,95.438,540.447,539.061,0.0
50815.0,STARLINK-3234,PAYLOAD,2023-05-11 07:20:46,15.08840822,0.0001068,53.2166,128.1556,93.5371,266.5743,4.3779e-05,4.09e-06,0.0,0 STARLINK-3234,1 50815U 22001N   23131.30608885  .00000409  00000-0  43779-4 0  9999,2 50815  53.2166 128.1556 0001068  93.5371 266.5743 15.08840822 74401,6917.878,95.438,540.482,539.004,0.0
50815.0,STARLINK-3234,PAYLOAD,2023-05-11 16:53:05,15.08837814,0.0001104,53.2167,126.3692,84.4065,275.7053,8.4793e-06,-1.53e-06,0.0,0 STARLINK-3234,1 50815U 22001N   23131.70353221 -.00000153  00000-0  84793-5 0  9993,2 50815  53.2167 126.3692 0001104  84.4065 275.7053 15.08837814 75733,6917.887,95.438,540.516,538.988,0.0
50815.0,STARLINK-3234,PAYLOAD,2023-05-12 05:36:10,15.08835181,0.0001096,53.2164,123.9903,85.7251,274.3867,1.6898e-05,-1.9e-07,0.0,0 STARLINK-3234,1 50815U 22001N   23132.23345520 -.00000019  00000-0  16898-4 0  9996,2 50815  53.2164 123.9903 0001096  85.7251 274.3867 15.08835181 74540,6917.895,95.438,540.518,539.002,0.0
50815.0,STARLINK-3234,PAYLOAD,2023-05-12 16:43:52,15.08839791,0.0001107,53.2168,121.9092,84.4004,275.7114,5.2423e-05,5.47e-06,0.0,0 STARLINK-3234,1 50815U 22001N   23132.69713204  .00000547  00000-0  52423-4 0  9993,2 50815  53.2168 121.9092 0001107  84.4004 275.7114 15.08839791 74615,6917.881,95.438,540.512,538.98,0.0
50815.0,STARLINK-3234,PAYLOAD,2023-05-13 05:26:56,15.08846349,0.0001076,53.2167,119.5299,84.8922,275.2193,0.00011892,1.606e-05,0.0,0 STARLINK-3234,1 50815U 22001N   23133.22704523  .00001606  00000-0  11892-3 0  9998,2 50815  53.2167 119.5299 0001076  84.8922 275.2193 15.08846349 75962,6917.861,95.437,540.47,538.982,0.0
50815.0,STARLINK-3234,PAYLOAD,2023-05-13 16:34:38,15.08842982,0.0001072,53.2167,117.4488,82.6583,277.4531,8.5148e-05,1.068e-05,0.0,0 STARLINK-3234,1 50815U 22001N   23133.69072686  .00001068  00000-0  85148-4 0  9995,2 50815  53.2167 117.4488 0001072  82.6583 277.4531 15.08842982 74760,6917.871,95.437,540.478,538.995,0.0
50815.0,STARLINK-3234,PAYLOAD,2023-05-14 05:17:44,15.08838321,0.0001147,53.2175,115.0697,90.5623,269.5501,7.839e-05,9.6e-06,0.0,0 STARLINK-3234,1 50815U 22001N   23134.22065137  .00000960  00000-0  78390-4 0  9999,2 50815  53.2175 115.0697 0001147  90.5623 269.5501 15.08838321 76113,6917.886,95.438,540.544,538.957,0.0
50815.0,STARLINK-3234,PAYLOAD,2023-05-15 05:08:31,15.08843524,0.0001202,53.2179,110.6106,88.8212,271.2918,-2.5879e-05,-7e-06,0.0,0 STARLINK-3234,1 50815U 22001N   23135.21425099 -.00000700  00000-0 -25879-4 0  9994,2 50815  53.2179 110.6106 0001202  88.8212 271.2918 15.08843524 74996,6917.87,95.437,540.566,538.903,0.0
50815.0,STARLINK-3234,PAYLOAD,2023-05-16 04:59:18,15.0883821,0.0001223,53.2178,106.1518,89.4795,270.6337,3.8258e-05,3.21e-06,0.0,0 STARLINK-3234,1 50815U 22001N   23136.20785315  .00000321  00000-0  38258-4 0  9996,2 50815  53.2178 106.1518 0001223  89.4795 270.6337 15.08838210 76411,6917.886,95.438,540.597,538.905,0.0
50815.0,STARLINK-3234,PAYLOAD,2023-05-17 01:39:13,15.08910557,9e-05,53.218,102.2856,103.5535,256.5558,0.00062248,9.652e-05,0.0,0 STARLINK-3234,1 50815U 22001N   23137.06890371  .00009652  00000-0  62248-3 0  9991,2 50815  53.2180 102.2856 0000900 103.5535 256.5558 15.08910557 76544,6917.665,95.433,540.152,538.907,0.0
50815.0,STARLINK-3234,PAYLOAD,2023-05-17 11:11:41,15.08784634,0.0001258,53.2181,100.5022,95.3445,264.769,-0.00043374,-7.174e-05,0.0,0 STARLINK-3234,1 50815U 22001N   23137.46645786 -.00007174  00000-0 -43374-3 0  9991,2 50815  53.2181 100.5022 0001258  95.3445 264.7690 15.08784634 76606,6918.05,95.441,540.785,539.044,0.0
50815.0,STARLINK-3234,PAYLOAD,2023-05-17 12:47:03,15.08808488,0.0001315,53.2174,100.2012,103.2214,256.8925,-0.00023241,-3.982e-05,0.0,0 STARLINK-3234,1 50815U 22001N   23137.53267750 -.00003982  00000-0 -23241-3 0  9994,2 50815  53.2174 100.2012 0001315 103.2214 256.8925 15.08808488 76619,6917.977,95.44,540.751,538.932,0.0
50815.0,STARLINK-3234,PAYLOAD,2023-05-18 03:05:31,15.08813981,0.0001085,53.2171,97.5225,107.8107,252.3004,-0.00018604,-3.245e-05,0.0,0 STARLINK-3234,1 50815U 22001N   23138.12884120 -.00003245  00000-0 -18604-3 0  9995,2 50815  53.2171  97.5225 0001085 107.8107 252.3004 15.08813981 76708,6917.96,95.439,540.576,539.074,0.0
50815.0,STARLINK-3234,PAYLOAD,2023-05-18 04:40:55,15.08814642,0.000108,53.2175,97.2254,105.6235,254.4876,-0.00017546,-3.077e-05,0.0,0 STARLINK-3234,1 50815U 22001N   23138.19508155 -.00003077  00000-0 -17546-3 0  9990,2 50815  53.2175  97.2254 0001080 105.6235 254.4876 15.08814642 75449,6917.958,95.439,540.57,539.076,0.0
50815.0,STARLINK-3234,PAYLOAD,2023-05-18 20:34:45,15.08865609,9.98e-05,53.2165,94.2528,120.0514,240.0577,-0.00051487,-8.478e-05,0.0,0 STARLINK-3234,1 50815U 22001N   23138.85746919 -.00008478  00000-0 -51487-3 0  9997,2 50815  53.2165  94.2528 0000998 120.0514 240.0577 15.08865609 75546,6917.802,95.436,540.358,538.977,0.0
50815.0,STARLINK-3234,PAYLOAD,2023-05-19 02:56:17,15.0886964,0.000124,53.2175,93.0694,98.5358,261.5775,-0.00045452,-7.52e-05,0.0,0 STARLINK-3234,1 50815U 22001N   23139.12242213 -.00007520  00000-0 -45452-3 0  9998,2 50815  53.2175  93.0694 0001240  98.5358 261.5775 15.08869640 76856,6917.79,95.436,540.513,538.797,0.0
50815.0,STARLINK-3234,PAYLOAD,2023-05-19 06:07:02,15.08875565,0.0001132,53.2174,92.471,125.6485,234.4613,-0.00034777,-5.824e-05,0.0,0 STARLINK-3234,1 50815U 22001N   23139.25489118 -.00005824  00000-0 -34777-3 0  9992,2 50815  53.2174  92.4710 0001132 125.6485 234.4613 15.08875565 76875,6917.772,95.435,540.42,538.854,0.0
50815.0,STARLINK-3234,PAYLOAD,2023-05-20 04:22:26,15.08849748,0.0001312,53.218,88.3088,119.4404,240.6719,0.00040719,6.2e-05,0.0,0 STARLINK-3234,1 50815U 22001N   23140.18225590  .00006200  00000-0  40719-3 0  9998,2 50815  53.2180  88.3088 0001312 119.4404 240.6719 15.08849748 77013,6917.851,95.437,540.623,538.808,0.0
50815.0,STARLINK-3234,PAYLOAD,2023-05-20 05:57:49,15.08855186,0.0001156,53.2176,88.0112,117.1426,242.9684,0.00042941,6.556e-05,0.0,0 STARLINK-3234,1 50815U 22001N   23140.24849321  .00006556  00000-0  42941-3 0  9992,2 50815  53.2176  88.0112 0001156 117.1426 242.9684 15.08855186 75756,6917.834,95.437,540.499,538.899,0.0
50815.0,STARLINK-3234,PAYLOAD,2023-05-21 05:48:36,15.08862686,0.0001364,53.2172,83.5478,123.2519,236.8604,0.00014532,2.027e-05,0.0,0 STARLINK-3234,1 50815U 22001N   23141.24208853  .00002027  00000-0  14532-3 0  9996,2 50815  53.2172  83.5478 0001364 123.2519 236.8604 15.08862686 77174,6917.811,95.436,540.62,538.732,0.0
50815.0,STARLINK-3234,PAYLOAD,2023-05-21 20:07:05,15.08835113,0.000116,53.218,80.8729,111.5386,248.573,-0.00033115,-5.553e-05,0.0,0 STARLINK-3234,1 50815U 22001N   23141.83826160 -.00005553  00000-0 -33115-3 0  9995,2 50815  53.2180  80.8729 0001160 111.5386 248.5730 15.08835113 75991,6917.895,95.438,540.563,538.958,0.0
50815.0,STARLINK-3234,PAYLOAD,2023-05-22 00:53:15,15.08838129,0.0001613,53.2183,79.9777,130.5629,229.5504,-0.00016976,-2.989e-05,0.0,0 STARLINK-3234,1 50815U 22001N   23142.03698798 -.00002989  00000-0 -16976-3 0  9998,2 50815  53.2183  79.9777 0001613 130.5629 229.5504 15.08838129 77293,6917.886,95.438,540.867,538.635,0.0
50815.0,STARLINK-3234,PAYLOAD,2023-05-22 02:28:39,15.08837181,0.0001374,53.2183,79.6814,123.8361,236.2762,-0.00018238,-3.189e-05,0.0,0 STARLINK-3234,1 50815U 22001N   23142.10322927 -.00003189  00000-0 -18238-3 0  9990,2 50815  53.2183  79.6814 0001374 123.8361 236.2762 15.08837181 76033,6917.889,95.438,540.705,538.803,0.0
50815.0,STARLINK-3234,PAYLOAD,2023-05-22 19:57:53,15.088344,0.0001132,53.2189,76.4111,116.2361,243.8747,4.2108e-05,3.82e-06,0.0,0 STARLINK-3234,1 50815U 22001N   23142.83186437  .00000382  00000-0  42108-4 0  9998,2 50815  53.2189  76.4111 0001132 116.2361 243.8747 15.08834400 76142,6917.898,95.438,540.546,538.979,0.0
50815.0,STARLINK-3234,PAYLOAD,2023-05-23 02:19:24,15.08851647,0.0001166,53.219,75.2239,104.6851,255.4271,4.2794e-05,3.93e-06,0.0,0 STARLINK-3234,1 50815U 22001N   23143.09681589  .00000393  00000-0  42794-4 0  9998,2 50815  53.2190  75.2239 0001166 104.6851 255.4271 15.08851647 77452,6917.845,95.437,540.516,538.903,0.0
50815.0,STARLINK-3234,PAYLOAD,2023-05-23 05:30:11,15.08849998,0.0001092,53.2188,74.6282,100.8108,259.3007,0.0001148,1.54e-05,0.0,0 STARLINK-3234,1 50815U 22001N   23143.22929559  .00001540  00000-0  11480-3 0  9997,2 50815  53.2188  74.6282 0001092 100.8108 259.3007 15.08849998 76209,6917.85,95.437,540.47,538.959,0.0
